0 IRIDIUM 33 DEB
1 35489U 97051QK  13281.78847266  .00011407  00000-0  25679-2 0  1563
2 35489 086.4064 124.2143 0024317 074.5176 049.0903 14.56152484236100
0 IRIDIUM 33 DEB
1 35489U 97051QK  13282.52637950  .00018371  00000-0  41305-2 0  1575
2 35489 086.4065 123.8956 0024330 072.2023 317.1577 14.56197082236210
0 IRIDIUM 33 DEB
1 35489U 97051QK  13283.02679347  .00016460  00000-0  37009-2 0  1581
2 35489 086.4065 123.6794 0024379 070.7014 060.2977 14.56201284236281
0 IRIDIUM 33 DEB
1 35489U 97051QK  13283.55160244  .00011478  00000-0  25905-2 0  1586
2 35489 086.4060 123.4512 0023947 068.1935 292.2308 14.56200869236367
0 IRIDIUM 33 DEB
1 35489U 97051QK  13285.77387372  .00013390  00000-0  30067-2 0  1608
2 35489 086.4062 122.4931 0024520 062.3177 060.8195 14.56266691236688
0 IRIDIUM 33 DEB
1 35489U 97051QK  13287.01715123  .00013136  00000-0  29479-2 0  1610
2 35489 086.4057 121.9561 0024560 058.4187 098.5451 14.56294327236877
0 IRIDIUM 33 DEB
1 35489U 97051QK  13287.98000976  .00024846  00000-0  55667-2 0  1628
2 35489 086.4054 121.5402 0024615 055.4096 106.2939 14.56325283237012
0 IRIDIUM 33 DEB
1 35489U 97051QK  13289.26500672  .00019859  00000-0  44472-2 0  1630
2 35489 086.4047 120.9848 0024563 051.3461 003.0976 14.56371644237190
0 IRIDIUM 33 DEB
1 35489U 97051QK  13289.81538373  .00018334  00000-0  41050-2 0  1647
2 35489 086.4046 120.7469 0024619 049.5986 008.6013 14.56386508237276
0 IRIDIUM 33 DEB
1 35489U 97051QK  13290.99718012  .00016319  00000-0  36514-2 0  1659
2 35489 086.4043 120.2363 0024566 045.7741 084.6698 14.56424899237447
0 IRIDIUM 33 DEB
1 35489U 97051QK  13292.49000534  .00016530  00000-0  36952-2 0  1661
2 35489 086.4044 119.5913 0024565 040.9890 351.6101 14.56466974237661
0 IRIDIUM 33 DEB
1 35489U 97051QK  13293.52431510  .00017833  00000-0  39837-2 0  1671
2 35489 086.4046 119.1444 0024524 037.6040 014.7413 14.56496228237818
0 IRIDIUM 33 DEB
1 35489U 97051QK  13294.55604252  .00021038  00000-0  46954-2 0  1681
2 35489 086.4047 118.6985 0024510 034.2179 024.4530 14.56523416237968
0 IRIDIUM 33 DEB
1 35489U 97051QK  13295.73654299  .00021233  00000-0  47353-2 0  1690
2 35489 086.4051 118.1883 0024505 030.2230 094.4885 14.56559595238130
